NORAD_CAT_ID,OBJECT_NAME,OBJECT_TYPE,EPOCH,MEAN_MOTION,ECCENTRICITY,INCLINATION,RA_OF_ASC_NODE,ARG_OF_PERICENTER,MEAN_ANOMALY,BSTAR,MEAN_MOTION_DOT,MEAN_MOTION_DDOT,TLE_LINE0,TLE_LINE1,TLE_LINE2,SEMIMAJOR_AXIS,PERIOD,APOGEE,PERIGEE,DECAYED
50198.0,STARLINK-3264,PAYLOAD,2024-07-19 06:21:43,15.0884113,0.000124,53.2184,45.5539,90.9777,269.1357,2.8594e-05,1.67e-06,0.0,0 STARLINK-3264,1 50198U 21125AU  24201.26508163  .00000167  00000-0  28594-4 0  9990,2 50198  53.2184  45.5539 0001240  90.9777 269.1357 15.08841130146392,6917.877,95.437,540.6,538.884,0.0
50198.0,STARLINK-3264,PAYLOAD,2024-07-19 20:40:11,15.08841684,0.0001143,53.2175,42.8836,110.8626,249.2489,0.0001372,1.896e-05,0.0,0 STARLINK-3264,1 50198U 21125AU  24201.86124217  .00001896  00000-0  13720-3 0  9994,2 50198  53.2175  42.8836 0001143 110.8626 249.2489 15.08841684146488,6917.875,95.437,540.531,538.95,0.0
50198.0,STARLINK-3264,PAYLOAD,2024-07-19 23:50:57,15.08849038,0.00011,53.2181,42.2845,89.0291,271.0827,0.00030329,4.543e-05,0.0,0 STARLINK-3264,1 50198U 21125AU  24201.99371936  .00004543  00000-0  30329-3 0  9996,2 50198  53.2181  42.2845 0001100  89.0291 271.0827 15.08849038146027,6917.853,95.437,540.479,538.957,0.0
50198.0,STARLINK-3264,PAYLOAD,2024-07-20 06:12:30,15.08844518,0.0001012,53.2165,41.0928,56.9711,303.1378,0.00018622,2.678e-05,0.0,0 STARLINK-3264,1 50198U 21125AU  24202.25868093  .00002678  00000-0  18622-3 0  9990,2 50198  53.2165  41.0928 0001012  56.9711 303.1378 15.08844518146543,6917.867,95.437,540.432,539.031,0.0
50198.0,STARLINK-3264,PAYLOAD,2024-07-20 20:30:58,15.08843972,0.0001137,53.219,38.4227,91.6242,268.4881,6.4839e-05,7.44e-06,0.0,0 STARLINK-3264,1 50198U 21125AU  24202.85484533  .00000744  00000-0  64839-4 0  9993,2 50198  53.2190  38.4227 0001137  91.6242 268.4881 15.08843972146158,6917.868,95.437,540.52,538.947,0.0
50198.0,STARLINK-3264,PAYLOAD,2024-07-21 06:03:17,15.08836872,0.0001117,53.2171,36.6294,67.3698,292.7412,-1.2244e-05,-4.83e-06,0.0,0 STARLINK-3264,1 50198U 21125AU  24203.25228586 -.00000483  00000-0 -12244-4 0  9997,2 50198  53.2171  36.6294 0001117  67.3698 292.7412 15.08836872146694,6917.89,95.438,540.528,538.982,0.0
50198.0,STARLINK-3264,PAYLOAD,2024-07-21 18:46:23,15.08839599,0.0001044,53.2172,34.2531,68.4924,291.618,-5.1033e-05,-1.1e-05,0.0,0 STARLINK-3264,1 50198U 21125AU  24203.78221338 -.00001100  00000-0 -51033-4 0  9999,2 50198  53.2172  34.2531 0001044  68.4924 291.6180 15.08839599146291,6917.882,95.438,540.469,539.024,0.0
50198.0,STARLINK-3264,PAYLOAD,2024-07-22 12:15:37,15.08842982,0.000117,53.2183,30.9871,82.3828,277.7297,0.00013067,1.793e-05,0.0,0 STARLINK-3264,1 50198U 21125AU  24204.51084728  .00001793  00000-0  13067-3 0  9991,2 50198  53.2183  30.9871 0001170  82.3828 277.7297 15.08842982146408,6917.871,95.437,540.546,538.927,0.0
50198.0,STARLINK-3264,PAYLOAD,2024-07-22 21:47:55,15.08854891,0.0001365,53.2169,29.2004,113.5643,246.5492,0.00011884,1.605e-05,0.0,0 STARLINK-3264,1 50198U 21125AU  24204.90827761  .00001605  00000-0  11884-3 0  9993,2 50198  53.2169  29.2004 0001365 113.5643 246.5492 15.08854891146941,6917.835,95.437,540.644,538.756,0.0
50198.0,STARLINK-3264,PAYLOAD,2024-07-23 21:38:43,15.08841789,0.000158,53.2185,24.741,81.3123,278.8048,6.5063e-05,7.48e-06,0.0,0 STARLINK-3264,1 50198U 21125AU  24205.90189059  .00000748  00000-0  65063-4 0  9991,2 50198  53.2185  24.7410 0001580  81.3123 278.8048 15.08841789147098,6917.875,95.437,540.833,538.647,0.0
50198.0,STARLINK-3264,PAYLOAD,2024-07-24 11:57:10,15.0888321,0.0001234,53.2142,22.0641,76.4684,283.6446,-0.00054079,-8.894e-05,0.0,0 STARLINK-3264,1 50198U 21125AU  24206.49804142 -.00008894  00000-0 -54079-3 0  9999,2 50198  53.2142  22.0641 0001234  76.4684 283.6446 15.08883210146709,6917.748,95.435,540.467,538.76,0.0
50198.0,STARLINK-3264,PAYLOAD,2024-07-24 21:29:30,15.08844227,0.0001876,53.2162,20.2794,89.7293,270.3914,4.5353e-05,4.34e-06,0.0,0 STARLINK-3264,1 50198U 21125AU  24206.89548808  .00000434  00000-0  45353-4 0  9993,2 50198  53.2162  20.2794 0001876  89.7293 270.3914 15.08844227147243,6917.867,95.437,541.03,538.435,0.0
50198.0,STARLINK-3264,PAYLOAD,2024-07-26 03:41:48,15.08840186,3.94e-05,53.2177,14.6281,306.4609,53.6347,0.0001385,1.917e-05,0.0,0 STARLINK-3264,1 50198U 21125AU  24208.15403818  .00001917  00000-0  13850-3 0  9998,2 50198  53.2177  14.6281 0000394 306.4609  53.6347 15.08840186146950,6917.88,95.438,540.017,539.472,0.0
50198.0,STARLINK-3264,PAYLOAD,2024-07-26 21:11:03,15.08847067,0.0001234,53.2187,11.3574,74.3194,285.7934,2.5336e-05,1.15e-06,0.0,0 STARLINK-3264,1 50198U 21125AU  24208.88268071  .00000115  00000-0  25336-4 0  9990,2 50198  53.2187  11.3574 0001234  74.3194 285.7934 15.08847067147545,6917.859,95.437,540.577,538.87,0.0
50198.0,STARLINK-3264,PAYLOAD,2024-07-27 03:32:36,15.08843912,0.0001245,53.2206,10.1662,67.0422,293.0701,-5.0985e-06,-3.69e-06,0.0,0 STARLINK-3264,1 50198U 21125AU  24209.14764279 -.00000369  00000-0 -50985-5 0  9993,2 50198  53.2206  10.1662 0001245  67.0422 293.0701 15.08843912147580,6917.868,95.437,540.595,538.872,0.0
50198.0,STARLINK-3264,PAYLOAD,2024-07-27 21:01:52,15.0881813,0.0001593,53.2138,6.9002,79.9751,280.1421,-2.9277e-05,-7.54e-06,0.0,0 STARLINK-3264,1 50198U 21125AU  24209.87630624 -.00000754  00000-0 -29277-4 0  9996,2 50198  53.2138   6.9002 0001593  79.9751 280.1421 15.08818130147690,6917.947,95.439,540.914,538.71,0.0
50198.0,STARLINK-3264,PAYLOAD,2024-07-28 03:23:25,15.08827545,0.0001805,53.2146,5.7124,82.8904,277.2293,5.0121e-05,5.09e-06,0.0,0 STARLINK-3264,1 50198U 21125AU  24210.14126197  .00000509  00000-0  50121-4 0  9991,2 50198  53.2146   5.7124 0001805  82.8904 277.2293 15.08827545147256,6917.918,95.438,541.032,538.535,0.0
50198.0,STARLINK-3264,PAYLOAD,2024-07-28 09:44:57,15.08837609,0.0001729,53.2214,4.5186,81.1544,278.9644,4.8308e-05,4.81e-06,0.0,0 STARLINK-3264,1 50198U 21125AU  24210.40621635  .00000481  00000-0  48308-4 0  9990,2 50198  53.2214   4.5186 0001729  81.1544 278.9644 15.08837609147298,6917.888,95.438,540.949,538.557,0.0
50198.0,STARLINK-3264,PAYLOAD,2024-07-28 17:41:51,15.08854547,0.0001459,53.2168,3.0338,89.214,270.9019,0.00016459,2.333e-05,0.0,0 STARLINK-3264,1 50198U 21125AU  24210.73740516  .00002333  00000-0  16459-3 0  9995,2 50198  53.2168   3.0338 0001459  89.2140 270.9019 15.08854547147344,6917.836,95.437,540.71,538.692,0.0
50198.0,STARLINK-3264,PAYLOAD,2024-07-29 03:14:11,15.08829893,0.0001759,53.2183,1.2466,89.7655,270.3539,-1.3465e-05,-5.02e-06,0.0,0 STARLINK-3264,1 50198U 21125AU  24211.13485641 -.00000502  00000-0 -13465-4 0  9998,2 50198  53.2183   1.2466 0001759  89.7655 270.3539 15.08829893147406,6917.911,95.438,540.993,538.559,0.0
50198.0,STARLINK-3264,PAYLOAD,2024-07-29 09:35:44,15.08828924,0.0001616,53.2176,0.0612,93.6931,266.4246,2.3673e-05,8.9e-07,0.0,0 STARLINK-3264,1 50198U 21125AU  24211.39981922  .00000089  00000-0  23673-4 0  9999,2 50198  53.2176   0.0612 0001616  93.6931 266.4246 15.08828924147923,6917.914,95.438,540.897,538.661,0.0
50198.0,STARLINK-3264,PAYLOAD,2024-07-30 03:04:58,15.08843085,0.0001654,53.2159,356.7892,88.3214,271.7967,0.00012504,1.703e-05,0.0,0 STARLINK-3264,1 50198U 21125AU  24212.12845347  .00001703  00000-0  12504-3 0  9995,2 50198  53.2159 356.7892 0001654  88.3214 271.7967 15.08843085147555,6917.871,95.437,540.88,538.592,0.0
50198.0,STARLINK-3264,PAYLOAD,2024-07-30 15:48:03,15.08846627,0.000183,53.2141,354.4085,85.7517,274.3684,6.7341e-05,7.84e-06,0.0,0 STARLINK-3264,1 50198U 21125AU  24212.65837165  .00000784  00000-0  67341-4 0  9990,2 50198  53.2141 354.4085 0001830  85.7517 274.3684 15.08846627148111,6917.86,95.437,540.991,538.459,0.0
50198.0,STARLINK-3264,PAYLOAD,2024-07-31 14:03:26,15.08850889,0.0001962,53.2151,350.2472,82.3557,277.7658,-0.00033463,-5.612e-05,0.0,0 STARLINK-3264,1 50198U 21125AU  24213.58572817 -.00005612  00000-0 -33463-3 0  9997,2 50198  53.2151 350.2472 0001962  82.3557 277.7658 15.08850889148257,6917.847,95.437,541.069,538.355,0.0
50198.0,STARLINK-3264,PAYLOAD,2024-07-31 15:38:50,15.08841343,0.0001838,53.2122,349.9461,99.3315,260.7885,0.00010971,1.458e-05,0.0,0 STARLINK-3264,1 50198U 21125AU  24213.65197361  .00001458  00000-0  10971-3 0  9993,2 50198  53.2122 349.9461 0001838  99.3315 260.7885 15.08841343147786,6917.876,95.437,541.013,538.47,0.0
50198.0,STARLINK-3264,PAYLOAD,2024-08-01 12:18:51,15.08832588,0.0001559,53.2184,346.0808,107.9164,252.1998,0.00058167,8.98e-05,0.0,0 STARLINK-3264,1 50198U 21125AU  24214.51309871  .00008980  00000-0  58167-3 0  9996,2 50198  53.2184 346.0808 0001559 107.9164 252.1998 15.08832588147911,6917.903,95.438,540.847,538.69,0.0
50198.0,STARLINK-3264,PAYLOAD,2024-08-01 18:40:23,15.08854221,0.0001642,53.2177,344.8911,105.4038,254.7136,0.0002788,4.154e-05,0.0,0 STARLINK-3264,1 50198U 21125AU  24214.77804534  .00004154  00000-0  27880-3 0  9997,2 50198  53.2177 344.8911 0001642 105.4038 254.7136 15.08854221147954,6917.837,95.437,540.838,538.566,0.0
50198.0,STARLINK-3264,PAYLOAD,2024-08-02 13:45:01,15.08834722,0.0001667,53.2161,341.3205,101.4221,258.6958,3.2482e-05,2.29e-06,0.0,0 STARLINK-3264,1 50198U 21125AU  24215.57293893  .00000229  00000-0  32482-4 0  9990,2 50198  53.2161 341.3205 0001667 101.4221 258.6958 15.08834722148075,6917.897,95.438,540.915,538.608,0.0
50198.0,STARLINK-3264,PAYLOAD,2024-08-02 15:20:25,15.08836132,0.0001428,53.2167,341.0272,82.4951,277.6203,6.2916e-05,7.13e-06,0.0,0 STARLINK-3264,1 50198U 21125AU  24215.63917830  .00000713  00000-0  62916-4 0  9994,2 50198  53.2167 341.0272 0001428  82.4951 277.6203 15.08836132148560,6917.892,95.438,540.745,538.769,0.0
50198.0,STARLINK-3264,PAYLOAD,2024-08-03 13:35:48,15.08850469,0.0001458,53.2172,336.8676,82.324,277.7918,0.00026129,3.874e-05,0.0,0 STARLINK-3264,1 50198U 21125AU  24216.56653400  .00003874  00000-0  26129-3 0  9993,2 50198  53.2172 336.8676 0001458  82.3240 277.7918 15.08850469148225,6917.848,95.437,540.722,538.705,0.0
